[Satellite]
VERSION=1.1
NAME=MEXSAT 3
NICKNAME=MEXSAT 3
TLE1=1 39035U 12075B   17185.53364852 -.00000031  00000-0  00000-0 0  9998
TLE2=2 39035   0.0028 191.1551 0002189 255.6405 273.2295  1.00269907 16395
